#dP2023  5 19 12  0  0.00000000      96 __u+U ITR00 EXT  IAC
## 2262 475200.00000000   900.00000000 60083 0.5000000000000
+  118   C06C07C08C09C10C11C12C13C14C16C19C20C21C22C23C24C25
+        C26C27C28C29C30C32C33C34C35C36C37C38C39C40C41C42C43
+        C44C45C46E02E03E04E05E07E08E09E10E11E12E13E14E15E18
+        E19E21E24E25E26E27E30E31E33E34E36G01G02G03G04G05G06
+        G07G08G09G10G11G12G13G14G15G16G17G18G19G21G22G23G24
+        G25G26G27G28G29G30G31G32J02J03J04R01R02R03R04R05R07
+        R08R09R11R12R13R14R15R16R17R18R19R20R21R22R24R25  0
++        10  8  9  8  9 10  8  9  9 10  9  7  8  7  8  8  7
++         8  8  9  8  9  6  9  8  7  9  9  7 11 10  9  9  8
++         8  7  9  7  7  8  8  8  7  8  7  8  7  7  8  7  7
++         8  8  7  7  7  7  7  8  7  7  7  7  7  6  7  8  7
++         6  8  8  8  7  6  8  7  8  7  6  7  6  7  8  7  7
++         7  9 10  8  8  7  7  7  8 10  9  7  7  7  8  8  7
++         9  8  7 10  8  7 10  8  7  7  9  7  8  7  7  9  0
%c M  cc GPS ccc cccc cccc cccc cccc ccccc ccccc ccccc ccccc
%c cc cc ccc ccc cccc cccc cccc cccc ccccc ccccc ccccc ccccc
%f  0.0000000  0.000000000  0.00000000000  0.000000000000000
%f  0.0000000  0.000000000  0.00000000000  0.000000000000000
%i    0    0    0    0      0      0      0      0         0
%i    0    0    0    0      0      0      0      0         0
/* IAC                                ULTRA-RAPID PREDICTION
/* S/V CLOCKS ARE ALIGNED TO GNSS TIME                      
/* G:C1WC2W R:C1PC2P E:C1XC5X C:C2IC6I J:C1CC2S             
/* PCV:IGS20_2247 OL/AL:FES2004  NONE     YN ORB:CoN CLK:CoN
*  2023 05 20  8 30  0.00000000
PC06 -15077.490322  25439.959468 -30118.076239   -189.369949
PC07 -10913.485104  40415.640897  -4063.962317    -46.146844
PC08   1570.097065  27328.749590  32127.191453    481.170111
PC09  -4961.571733  24944.704857 -33283.770476    632.721220
PC10  -4087.960067  41532.435067   3791.258254    -63.176773
PC11  26265.069507  -9089.612506   2682.998716    629.081961
PC12  20639.094406   4286.970907  18319.824747    652.064978
PC13   7897.582073  31143.998840  27597.542154    278.566092
PC14  15391.526298  -9811.735964 -21107.707223    285.793420
PC16 -19320.469952  24475.106236 -28280.812919     72.317827
PC19 -12558.661934  19271.409375  15807.207212   -912.268481
PC20 -15784.268248    581.773978  23019.396451    556.714091
PC21   9689.441976  19973.257960 -16870.968465   -916.073958
PC22  -1934.996224  27803.908437   -950.363966   -479.839399
PC23  -2392.346537 -19355.308791  19966.527635   -933.446908
PC24  24558.261736   8272.724941  10372.417036    -33.536868
PC25  14778.220858  -9005.017080  21887.460314    130.205014
PC26  20076.302993  18541.225141  -5747.378099   -122.884734
PC27 -13883.936886 -10468.000367 -21853.170298    142.857393
PC28   4645.099313 -17963.370032 -20845.499822    105.756815
PC29 -21905.689656  15970.877604   6615.923031    122.806021
PC30 -25228.204494   3532.916906 -11430.899804     -0.406535
PC32  -9834.134859 -19986.913448  16840.501384   -559.779436
PC33  12467.158651 -19328.475217 -15812.637391   -883.793310
PC34  25538.275283  -4516.601042  10257.937362    174.688705
PC35  -4775.494658  18345.232815  20476.674292    624.027276
PC36 -15568.956576   8068.317999 -21683.294588   -431.156530
PC37 -18871.112663 -19378.784704   6835.762130   -784.113122
PC38  -7015.154459  23918.648786  34066.512968     79.558722
PC39 -23285.597168  24949.257699 -24857.115113     -3.009982
PC40 -16582.625870  38084.031277  -6473.473297    -23.741065
PC41   2209.517736 -27824.968599    362.284056   -940.331874
PC42  15710.741656    919.551495 -22998.670511   -684.207799
PC43  22377.440807 -15600.366649  -5844.835364     22.256183
PC44  14105.033733  10195.866672  21789.303285    112.234232
PC45   2949.556934  19439.328451 -19808.387210    -99.873141
PC46 -24294.479038  -7063.790586 -11735.335527    -55.377343
PE02 -17049.251759   2011.262564 -24116.753226     39.185504
PE03 -22415.688609  12750.998953  14520.655524    -18.206516
PE04  15938.853332 -24751.662512   3119.634098   -126.312428
PE05 -15842.850841  -7025.172022  24005.532389    -65.777536
PE07   -148.981794  22549.090647 -19155.979030    -46.426670
PE08 -16106.360117  24664.236162  -2814.662184    -85.886736
PE09    359.326350 -22587.787341  19144.777689    -21.013940
PE10   2557.204697 -15817.901560 -24900.247483   -535.058472
PE11  -9781.050560 -16107.394708 -22847.032919   1978.844878
PE12  13404.098042 -13234.459455 -22835.555341   -546.135056
PE13   8921.368630  16094.165037  23179.275046    -19.199699
PE14  22094.060014 -20798.052203   2526.171210    230.309954
PE15 -13772.502671  13042.315782  22726.657189    -23.141407
PE18 -21845.335571   9762.119157 -10808.353468     85.062842
PE19  22271.740279 -10323.698017 -16527.244625  -2491.975213
PE21  18537.700436  17444.963452  15102.869326   -530.156577
PE24  -8786.626056 -27997.599632   3797.662940   -108.804003
PE25 -18466.940135 -17742.021025 -14840.183482   -605.363978
PE26  26486.043385   9380.316624   9301.894767    109.544404
PE27   9377.988112  27904.832518  -3122.242472    -53.967629
PE30  -5732.760534  21426.436782 -19617.711326   -187.649551
PE31   5213.990018 -21814.793540  19321.031451   -524.138313
PE33  28138.168510  -2322.080071  -8871.009667   -444.228046
PE34 -28090.157818   2456.571707   8991.184404    -46.381231
PE36 -26107.765412  -9688.388199 -10057.606198    -58.813275
PG01 -16573.675731 -13791.446471 -16079.426372    184.012554
PG02  10226.309365 -13106.906251 -20198.608769   -594.358970
PG03 -12945.766060 -22330.761453   6395.192342   -297.857612
PG04  -8828.107641 -12721.843617  21581.043262     46.149993
PG05   3696.870043  24558.261201   9074.064285   -127.892835
PG06 -21157.044639   6240.176525  14927.475656    587.826332
PG07 -25716.771682  -6958.217410   3604.556709    173.746426
PG08   1324.395342 -20617.202072 -16539.097813   -123.307858
PG09 -16548.399704  -2463.205243  20565.743730   -154.832649
PG10  14036.793155  -4532.076252 -21915.510637    -37.672049
PG11  -7278.294924  13687.216507  21571.321085   -203.542460
PG12   9899.648727  24376.028384   3670.444477   -378.258618
PG13 -10206.018897  21077.305560 -12506.877464    522.487865
PG14 -15728.553631   1279.184051 -21367.245731     62.981045
PG15   2018.968593  20696.651772 -16834.266280     41.189235
PG16   1762.327259 -23474.268630  11535.503887   -499.422016
PG17 -21038.006866  11426.205275 -11188.220460    715.459525
PG18  26236.467986   4638.680136   -340.332779   -273.791760
PG19 -20450.503019  16256.507481  -3999.608597    319.329682
PG21  -9006.431160 -14649.023726 -19914.939925    153.711381
PG22  18476.561499 -18948.857536    -58.890515    484.341200
PG23  17080.649490   8532.454691 -18523.557995     25.706530
PG24  12978.012209  14694.102339 -18455.982567   -195.293314
PG25  16281.952287  16424.463906  12980.968662    444.092055
PG26   9114.643637 -15067.802085  19671.226562    240.550542
PG27  11246.352802 -22523.544670  -8022.459067     33.681457
PG28  22260.631036  -6265.850207  13036.266450     79.049996
PG29  14151.449818   6279.420984  21538.531969   -600.071777
PG30 -25579.724834   1090.323705  -7450.468962   -516.149589
PG31  13725.355909 -11514.089775  19578.001799   -216.474119
PG32  20090.412427 -14197.900011  -9573.491550   -480.870971
PJ02 -19668.319646  25354.788586 -22664.116944     -0.055719
PJ03 -30325.832116  25960.741184  18784.189361      4.530386
PJ04 -28738.687366  27585.288912  19766.616838     94.655027
PR01   7643.729338  11508.037724 -21432.871090     57.833583
PR02  12444.307640  -7925.280784 -20742.120735    -22.823399
PR03  10035.247491 -22094.102151  -7724.529286     78.148108
PR04   2377.255468 -23653.947250   9270.100883    187.877345
PR05  -6653.530586 -12452.096538  21255.996173    112.835024
PR07  -9851.254017  22483.369286   7066.171524     56.264336
PR08  -2167.096557  23649.636497  -9281.780117    -70.877466
PR09 -17113.396733  -3853.586723 -18535.094983    121.154115
PR11   8889.010027  18766.407341 -14791.862533    -59.925095
PR12  18920.635128  16744.441003   3585.089878     27.412128
PR13  17670.017100   5719.238194  17471.523954    -35.243406
PR14   5064.227303 -10508.823475  22698.716678     24.667729
PR15  -9585.848259 -19207.016956  13805.101824     89.250925
PR16 -18952.942869 -16795.931592  -3202.977017     14.727604
PR17  17512.921961 -11249.386537 -14769.268206    631.552804
PR18   1150.669972 -10911.519549 -23014.729149     82.410547
PR19 -14403.354896  -6166.203963 -20135.414459   -233.264179
PR20 -25078.602916   3825.990344  -2878.681887    -93.159573
PR21 -16346.897431  11318.553945  15958.141484     -8.861185
PR22   -472.635856  11134.020536  22967.181206     81.282338
PR24  24936.581364  -4918.343269   2240.052723    171.908713
PR25 -18048.513170  10592.402053  14573.010388     61.574875
EOF
